#aV2021  5 20  0  0  0.00000000     288 DD+AD WGS84 FIT  NGA
## 2158 345600.00000000   300.00000000 59354 0.0000000000000
+   31     1  2  3  4  5  6  7  8  9 10 12 13 14 15 16 17 18
+         19 20 21 22 23 24 25 26 27 28 29 30 31 32  0  0  0
+          0  0  0  0  0  0  0  0  0  0  0  0  0  0  0  0  0
+          0  0  0  0  0  0  0  0  0  0  0  0  0  0  0  0  0
+          0  0  0  0  0  0  0  0  0  0  0  0  0  0  0  0  0
++         2  2  2  2  2  2  2  2  2  2  2  2  2  2  2  2  2
++         2  2  2  2  2  2  2  2  2  2  2  2  2  2  0  0  0
++         0  0  0  0  0  0  0  0  0  0  0  0  0  0  0  0  0
++         0  0  0  0  0  0  0  0  0  0  0  0  0  0  0  0  0
++         0  0  0  0  0  0  0  0  0  0  0  0  0  0  0  0  0
%c cc cc ccc ccc cccc cccc cccc cccc ccccc ccccc ccccc ccccc
%c cc cc ccc ccc cccc cccc cccc cccc ccccc ccccc ccccc ccccc
%f  0.0000000  0.000000000  0.00000000000  0.000000000000000
%f  0.0000000  0.000000000  0.00000000000  0.000000000000000
%i    0    0    0    0      0      0      0      0         0
%i    0    0    0    0      0      0      0      0         0
/*      NGA, ST. LOUIS,MO.                                  
/*   EPHEMERIS COMPUTED FROM 2 DAYS OF DATA                 
/*   EPOCHA v6 SMOOTHER                                     
/*   G2139 IERS2010 SATIGS SATAPC                           
*  2021  5 20  3 25  0.00000000
P  1 -14042.344056  21563.664849   5524.984354    684.028443                    
V  1   1007.507623  -7692.774250  31466.554149     -0.111298                    
P  2  15811.797510  -1429.272559 -20651.892804   -605.655094                    
V  2  -8780.530737  26309.622797  -8235.623088     -0.031322                    
P  3 -17308.479997  12585.080937 -15740.069773   -168.734797                    
V  3 -19945.246628    153.950843  22283.596257     -0.104127                    
P  4  -7591.858527  14743.449669 -20727.055665   -196.946642                    
V  4 -15388.370922 -21411.293988  -9645.948593     -0.014721                    
P  5  26068.638289  -5104.749263   2152.347559    -42.450441                    
V  5   3258.660231   2383.540001 -31374.531590     -0.011332                    
P  6  10340.588506  11687.315894 -21425.322320     17.528264                    
V  6 -11760.490121  24626.388100   7794.159722      0.038704                    
P  7  -5121.035942  24649.495558   7973.266437    155.714727                    
V  7  -7028.837831   7552.923451 -29637.603965      0.105187                    
P  8 -14389.911292   5634.198059  21620.835383    -21.860329                    
V  8 -16179.517070 -22143.760433  -4697.058012     -0.014499                    
P  9   2828.959282  21720.634033 -15066.285825   -346.514706                    
V  9 -13150.323829 -13966.149957 -22713.847372     -0.022488                    
P 10 -13347.803987 -12200.684923  19659.891294   -125.457066                    
V 10  24373.736804  -3488.539075  14208.741787     -0.076471                    
P 12  19652.442369 -10491.523148 -14608.960570    -43.459589                    
V 12  18184.801050   1310.480112  24075.833688     -0.051717                    
P 13  17449.169095   4140.549005  19504.480997    134.213126                    
V 13  10804.444456  22559.967050 -14226.084633      0.047534                    
P 14  12317.242559  13103.944773  19546.202524     83.360930                    
V 14 -24733.882678   2635.817933  13781.036402     -0.055193                    
P 15  14092.519697  -7671.654849  20836.058981   -148.199560                    
V 15  18143.855917  20524.355577  -4283.417888      0.026147                    
P 16 -26741.655169  -1032.080185  -1893.516964   -327.953740                    
V 16   2051.589635  -2019.019489 -31621.129332     -0.060454                    
P 17  13082.052985  23067.489327   1855.466654    445.159491                    
V 17  -2772.458711   -417.103964  32109.519279      0.059966                    
P 18   3190.810920 -23989.016896  10858.527442    349.924154                    
V 18   8030.235839 -11473.497124 -27743.519532     -0.010880                    
P 19  16916.804740  19120.451478  -7828.264595      2.315488                    
V 19   3047.049775   9196.609955  30039.552567      0.049814                    
P 20  21579.096079 -12216.391398   9024.829373    522.014931                    
V 20  12128.427844    536.679020 -28493.600753     -0.003973                    
P 21 -16274.686850  15957.314507  13924.441220    119.343354                    
V 21   3481.657830 -16520.640034  24730.814179      0.026264                    
P 22 -23684.600251   9688.620948  -6534.447197   -609.934759                    
V 22  -9174.612339  -1887.535984  29781.752015      0.095467                    
P 23   -655.796901 -15154.250059  21780.765114    105.191710                    
V 23  27496.666735  -3323.682542  -1529.931526     -0.033485                    
P 24  15158.880969 -18732.924212  10468.653698     88.016472                    
V 24  -1499.335206  14201.811483  27346.362005      0.220820                    
P 25   7024.781074 -15286.785167 -20753.575828    140.432443                    
V 25  25788.964092  -1639.756269  10330.803445      0.070411                    
P 26 -23747.103691  -4822.409822 -11238.183670     87.579487                    
V 26  13594.189026  -4688.526255 -26585.278256      0.049168                    
P 27 -19063.835758  -6378.122825  17369.881475   -133.043939                    
V 27 -11943.822546 -18787.029471 -19447.193146     -0.064977                    
P 28  17571.133224  11344.080999  16810.111043    568.538388                    
V 28 -20349.540656   1669.215142  21015.171165     -0.061575                    
P 29  -1151.711471 -21565.918196 -15477.671635   -350.015212                    
V 29  11496.391010  15865.568223 -23081.532973     -0.064660                    
P 30   5093.793559  19186.155128  17595.272101   -428.324637                    
V 30 -11667.181373  19228.766687 -17884.271773     -0.049280                    
P 31 -12770.485282  -8699.917388 -21657.434040   -118.283863                    
V 31  12301.466993 -24434.680150   3027.374542     -0.021671                    
P 32 -16002.675012 -21306.488572   -529.636966     20.869576                    
V 32   1787.001034  -2298.210524  31548.354577     -0.008075                    
EOF
